NAVSTAR 77 (USA 289)    
1 43873U 18109A   24120.26774282  .00000073  00000+0  00000+0 0  9999
2 43873  55.2783 122.9603 0028758 195.9266 192.6176  2.00553677 39456
